[
    {
        "Altitude(m)": 605459.0571129873,
        "Argument of Periapsis(deg)": 0.0,
        "Eccentricity": 0.0,
        "Inclination(deg)": 60.0,
        "Latitude(deg)": 27.98830593856282,
        "Longitude(deg)": 142.7986226717235,
        "Mean Anomaly(deg)": 32.72730000000001,
        "RAAN(deg)": 225.0,
        "Satellite Name": "Test1 992",
        "Satellite Number": 992,
        "Semi-Major Axis(m)": 6980739.136638005,
        "Time(s)": 0
    },
    {
        "Altitude(m)": 605535.8483303796,
        "Argument of Periapsis(deg)": 0.00010418945913296404,
        "Eccentricity": 0.0,
        "Inclination(deg)": 60.0,
        "Latitude(deg)": 28.501434988947757,
        "Longitude(deg)": 143.15556887946366,
        "Mean Anomaly(deg)": 33.34740614546182,
        "RAAN(deg)": 224.99957995086024,
        "Satellite Name": "Test1 992",
        "Satellite Number": 992,
        "Semi-Major Axis(m)": 6980739.136638005,
        "Time(s)": 10
    }
]